OBJECT_NAME,OBJECT_ID,EPOCH,MEAN_MOTION,ECCENTRICITY,INCLINATION,RA_OF_ASC_NODE,ARG_OF_PERICENTER,MEAN_ANOMALY,EPHEMERIS_TYPE,CLASSIFICATION_TYPE,NORAD_CAT_ID,ELEMENT_SET_NO,REV_AT_EPOCH,BSTAR,MEAN_MOTION_DOT,MEAN_MOTION_DDOT
RED-EYE 3 (CABERNET),1998-067RN,2020-12-14T18:47:48.734016,15.51172081,.0000801,51.6402,173.5730,343.2207,16.8756,0,U,45809,999,2698,.69036E-4,.3649E-4,0
DEMI,1998-067RP,2020-12-14T22:59:41.651808,15.53013601,.00021,51.6397,171.7485,237.2193,122.8595,0,U,45916,999,2401,.14464E-3,.8733E-4,0
TECHEDSAT 10,1998-067RQ,2020-12-14T05:18:07.121664,15.63408356,.0005569,51.6354,171.3168,247.0880,112.9527,0,U,45917,999,2390,.88549E-3,.8367E-3,0
PROGRESS-MS 15,2020-050A,2020-12-13T13:11:59.194752,15.49180997,.0001783,51.6445,180.9789,128.1963,279.5916,0,U,45937,999,2215,.25206E-4,.948E-5,0
CYGNUS NG-14,2020-069A,2020-12-13T13:11:59.194752,15.49180997,.0001783,51.6445,180.9789,128.1963,279.5916,0,U,46530,999,1108,.25206E-4,.948E-5,0
SOYUZ-MS 17,2020-072A,2020-12-13T13:11:59.194752,15.49180997,.0001783,51.6445,180.9789,128.1963,279.5916,0,U,46613,999,935,.25206E-4,.948E-5,0
CREW DRAGON 1,2020-084A,2020-12-13T13:11:59.194752,15.49180997,.0001783,51.6445,180.9789,128.1963,279.5916,0,U,46920,999,427,.25206E-4,.948E-5,0
SPOC,1998-067RR,2020-12-14T19:07:47.037216,15.50948250,.0002825,51.6409,174.4168,115.8313,244.2968,0,U,46921,999,616,.14712E-3,.8232E-4,0
BOBCAT-1,1998-067RS,2020-12-14T19:04:06.737952,15.51205710,.0002557,51.6409,174.4004,123.3153,236.8081,0,U,46922,999,612,.19238E-3,.11014E-3,0
NEUTRON-1,1998-067RT,2020-12-14T19:10:55.308000,15.50852700,.0002748,51.6408,174.4309,127.1572,232.9668,0,U,46923,999,619,.14156E-3,.7876E-4,0
1998-067RU,1998-067RU,2020-12-14T18:59:44.362752,15.51610404,.0002802,51.6406,174.3790,159.2481,200.8622,0,U,46924,999,616,.27728E-3,.16329E-3,0
LEMUR-2-BAXTER-OLIVER,1998-067RV,2020-12-14T01:55:46.063200,15.51749970,.0002742,51.6410,177.8811,160.7495,199.3599,0,U,46925,999,602,.15678E-3,.9069E-4,0
LEMUR-2-DJARA,1998-067RW,2020-12-14T00:26:11.613408,15.51609563,.0002236,51.6409,178.2157,144.4826,215.6313,0,U,46926,999,603,.34392E-3,.20374E-3,0
DESCENT,1998-067RX,2020-12-14T17:40:29.014752,15.50803540,.0002868,51.6406,174.7612,144.6997,215.4182,0,U,46927,999,609,.14695E-3,.8178E-4,0
DRAGON CRS-21,2020-093A,2020-12-13T13:11:59.194752,15.49180997,.0001783,51.6445,180.9789,128.1963,279.5916,0,U,47233,999,107,.25206E-4,.948E-5,0
